{
  "norad_id": 47393,
  "name": "STARLINK-2114",
  "history": [
    {
      "epoch": "2026-03-28T22:00:01.999584Z",
      "apogee_km": 361.0561976476756,
      "perigee_km": 356.6009075884185,
      "latitude_deg": 43.8906974966045,
      "longitude_deg": -133.2697428813632,
      "height_km": 365.4136869168046,
      "semi_major_axis_km": 6736.965552618047,
      "eccentricity": 0.00033066,
      "inclination_deg": 53.0413,
      "raan_deg": 249.1051,
      "arg_perigee_deg": 312.7507,
      "mean_anomaly_deg": 167.3138,
      "mean_motion_rev_day": 15.7002393
    },
    {
      "epoch": "2026-03-28T23:01:08.853600Z",
      "apogee_km": 360.8349051059149,
      "perigee_km": 356.6566903947496,
      "latitude_deg": 8.89512865640197e-06,
      "longitude_deg": 77.23491879308177,
      "height_km": 358.2668975356304,
      "semi_major_axis_km": 6736.8827977503315,
      "eccentricity": 0.0003101,
      "inclination_deg": 53.0419,
      "raan_deg": 248.8939,
      "arg_perigee_deg": 311.4752,
      "mean_anomaly_deg": 48.5998,
      "mean_motion_rev_day": 15.70052859
    }
  ]
}